STARLINK-33715          
1 63441U 25069J   26129.96485438  .00029777  00000+0  69086-3 0  9990
2 63441  53.1595 216.6179 0001323  78.8170 281.2984 15.42167957 62807
STARLINK-33762          
1 63442U 25069K   26129.96454892  .00030864  00000+0  71577-3 0  9998
2 63442  53.1602 216.6243 0001142  96.0205 264.0931 15.42163042 62801
STARLINK-33753          
1 63443U 25069L   26129.95218507  .00021232  00000+0  49606-3 0  9996
2 63443  53.1590 216.5458 0000924  95.2935 264.8176 15.42156880 62792
STARLINK-33747          
1 63444U 25069M   26129.94387781  .00022160  00000+0  51710-3 0  9997
2 63444  53.1592 216.4913 0000820  72.9627 287.1469 15.42165746 62744
STARLINK-33659          
1 63445U 25069N   26129.59942748  .00024866  00000+0  57906-3 0  9997
2 63445  53.1590 218.6075 0001077  72.7959 287.3165 15.42156985 62691
STARLINK-33746          
1 63446U 25069P   26129.96189390  .00029847  00000+0  69252-3 0  9996
2 63446  53.1601 216.6022 0001110  92.7311 267.3822 15.42166217 62751
STARLINK-33799          
1 63447U 25069Q   26129.97313669  .00018122  00000+0  62256-3 0  9997
2 63447  53.1588 218.0913 0001257  80.9043 279.2100 15.30195777 62676
STARLINK-33797          
1 63448U 25069R   26129.94509242  .00021300  00000+0  49756-3 0  9991
2 63448  53.1590 216.5003 0001037 105.8777 254.2344 15.42159684 62741
STARLINK-33798          
1 63449U 25069S   26129.59913764  .00012492  00000+0  29620-3 0  9991
2 63449  53.1589 218.5920 0000826  89.1220 270.9881 15.42143196 62474
STARLINK-33736          
1 63450U 25069T   26129.94231906  .00032961  00000+0  76345-3 0  9992
2 63450  53.1595 216.4781 0001048  87.1729 272.9397 15.42167188 62756
STARLINK-33740          
1 63451U 25069U   26130.22879917  .00018104  00000+0  42439-3 0  9996
2 63451  53.1597 215.4192 0001227 102.2647 257.8496 15.42166275 62737
STARLINK-33763          
1 63452U 25069V   26129.93849538  .00037186  00000+0  85984-3 0  9992
2 63452  53.1585 216.4433 0000909  76.6521 283.4587 15.42159524 62808
STARLINK-33784          
1 63453U 25069W   26129.97208060  .00017979  00000+0  61784-3 0  9996
2 63453  53.1590 218.0839 0001190  88.5270 271.5867 15.30192128 62789
STARLINK-33768          
1 63454U 25069X   26129.95192157  .00031021  00000+0  71951-3 0  9995
2 63454  53.1595 216.5245 0000855  87.5076 272.6028 15.42156033 62799
STARLINK-33761          
1 63455U 25069Y   26129.94982221  .00028725  00000+0  66705-3 0  9992
2 63455  53.1592 216.5146 0001039 104.4949 255.6172 15.42160029 62803
STARLINK-33737          
1 63456U 25069Z   26129.95150132  .00023135  00000+0  53946-3 0  9995
2 63456  53.1580 216.5162 0000823 108.5786 251.5310 15.42160286 62694
STARLINK-33795          
1 63457U 25069AA  26130.16668980  .00064212  00000+0  14737-2 0  9991
2 63457  53.1590 215.7559 0001201  93.1542 258.3857 15.42138784  5918
STARLINK-33756          
1 63458U 25069AB  26129.52494104  .00021777  00000+0  50871-3 0  9994
2 63458  53.1584 218.8349 0001014  52.9392 307.1707 15.42145348 62735
STARLINK-33780          
1 63459U 25069AC  26129.95110493  .00028072  00000+0  65236-3 0  9994
2 63459  53.1595 216.5164 0001154  98.0121 262.1016 15.42151583 62690
STARLINK-33679          
1 63460U 25070A   26130.09051875  .00018181  00000+0  66855-3 0  9991
2 63460  42.9985 273.3546 0001672 285.7983  74.2684 15.27581167 62367
STARLINK-33706          
1 63461U 25070B   26130.09436762  .00012247  00000+0  45379-3 0  9999
2 63461  43.0012 273.3544 0001652 281.7103  78.3563 15.27582758 62365
STARLINK-33691          
1 63462U 25070C   26130.10836933  .00016498  00000+0  60787-3 0  9998
2 63462  43.0022 272.5955 0001430 267.5005  92.5683 15.27571126 62325
STARLINK-33696          
1 63463U 25070D   26129.87250404  .00010991  00000+0  40820-3 0  9992
2 63463  43.0022 274.2705 0001828 270.5954  89.4689 15.27590777 62331
STARLINK-33701          
1 63464U 25070E   26130.09824472  .00007841  00000+0  29496-3 0  9997
2 63464  43.0019 273.3802 0000742 206.5591 153.5222 15.27489901 62361
STARLINK-33685          
1 63465U 25070F   26130.08021589  .00016240  00000+0  59878-3 0  9995
2 63465  43.0006 273.2440 0002144 268.6441  91.4165 15.27556650 62368
STARLINK-33654          
1 63466U 25070G   26129.87379413  .00010562  00000+0  39281-3 0  9990
2 63466  43.0021 274.2773 0001567 286.8005  73.2675 15.27578756 62334
STARLINK-33697          
1 63467U 25070H   26129.68019998  .00019327  00000+0  70953-3 0  9998
2 63467  43.0006 275.4178 0001146 270.8713  89.2008 15.27602246 62308
STARLINK-33720          
1 63468U 25070J   26129.68148458  .00008127  00000+0  30436-3 0  9991
2 63468  43.0015 275.4138 0001333 280.1811  79.8890 15.27597746 62308
STARLINK-33587          
1 63469U 25070K   26130.12377139  .00010734  00000+0  39895-3 0  9998
2 63469  43.0001 272.7080 0001776 269.9905  90.0743 15.27584268 62374
STARLINK-33637          
1 63470U 25070L   26130.10207669  .00010994  00000+0  40851-3 0  9990
2 63470  42.9996 273.4059 0000512 267.2146  92.8647 15.27575206 62360
