OBJECT_NAME,OBJECT_ID,EPOCH,MEAN_MOTION,ECCENTRICITY,INCLINATION,RA_OF_ASC_NODE,ARG_OF_PERICENTER,MEAN_ANOMALY,EPHEMERIS_TYPE,CLASSIFICATION_TYPE,NORAD_CAT_ID,ELEMENT_SET_NO,REV_AT_EPOCH,BSTAR,MEAN_MOTION_DOT,MEAN_MOTION_DDOT
STARLINK-33715,2025-069J,2026-05-09T23:09:23.418432,15.42167957,.0001323,53.1595,216.6179,78.8170,281.2984,0,U,63441,999,6280,.69086E-3,.29777E-3,0
STARLINK-33762,2025-069K,2026-05-09T23:08:57.026688,15.42163042,.0001142,53.1602,216.6243,96.0205,264.0931,0,U,63442,999,6280,.71577E-3,.30864E-3,0
STARLINK-33753,2025-069L,2026-05-09T22:51:08.790048,15.42156880,.0000924,53.1590,216.5458,95.2935,264.8176,0,U,63443,999,6279,.49606E-3,.21232E-3,0
STARLINK-33747,2025-069M,2026-05-09T22:39:11.042784,15.42165746,.000082,53.1592,216.4913,72.9627,287.1469,0,U,63444,999,6274,.5171E-3,.2216E-3,0
STARLINK-33659,2025-069N,2026-05-09T14:23:10.534272,15.42156985,.00010778,53.1590,218.6075,72.7959,287.3165,0,U,63445,999,6269,.57906042E-3,.24866E-3,0
STARLINK-33746,2025-069P,2026-05-09T23:05:07.632960,15.42166217,.000111,53.1601,216.6022,92.7311,267.3822,0,U,63446,999,6275,.69252E-3,.29847E-3,0
STARLINK-33799,2025-069Q,2026-05-09T23:21:19.010016,15.30195777,.0001257,53.1588,218.0913,80.9043,279.2100,0,U,63447,999,6267,.62256E-3,.18122E-3,0
STARLINK-33797,2025-069R,2026-05-09T22:40:55.985088,15.42159684,.0001037,53.1590,216.5003,105.8777,254.2344,0,U,63448,999,6274,.49756E-3,.213E-3,0
STARLINK-33798,2025-069S,2026-05-09T14:22:45.492096,15.42143196,.00008265,53.1589,218.5920,89.1220,270.9881,0,U,63449,999,6247,.29619679E-3,.12492E-3,0
STARLINK-33736,2025-069T,2026-05-09T22:36:56.366784,15.42167188,.0001048,53.1595,216.4781,87.1729,272.9397,0,U,63450,999,6275,.76345E-3,.32961E-3,0
STARLINK-33740,2025-069U,2026-05-10T05:29:28.248288,15.42166275,.0001227,53.1597,215.4192,102.2647,257.8496,0,U,63451,999,6273,.42439E-3,.18104E-3,0
STARLINK-33763,2025-069V,2026-05-09T22:31:26.000832,15.42159524,.00009098,53.1585,216.4433,76.6521,283.4587,0,U,63452,999,6280,.85983527E-3,.37186E-3,0
STARLINK-33784,2025-069W,2026-05-09T23:19:47.763840,15.30192128,.000119,53.1590,218.0839,88.5270,271.5867,0,U,63453,999,6278,.61784E-3,.17979E-3,0
STARLINK-33768,2025-069X,2026-05-09T22:50:46.023648,15.42156033,.0000855,53.1595,216.5245,87.5076,272.6028,0,U,63454,999,6279,.71951E-3,.31021E-3,0
STARLINK-33761,2025-069Y,2026-05-09T22:47:44.638944,15.42160029,.0001039,53.1592,216.5146,104.4949,255.6172,0,U,63455,999,6280,.66705E-3,.28725E-3,0
STARLINK-33737,2025-069Z,2026-05-09T22:50:09.714048,15.42160286,.0000823,53.1580,216.5162,108.5786,251.5310,0,U,63456,999,6269,.53946E-3,.23135E-3,0
STARLINK-33795,2025-069AA,2026-05-10T04:00:01.998720,15.42138784,.0001201,53.1590,215.7559,93.1542,258.3857,0,U,63457,999,591,.14737E-2,.64212E-3,0
STARLINK-33756,2025-069AB,2026-05-09T12:35:54.905856,15.42145348,.00010143,53.1584,218.8349,52.9392,307.1707,0,U,63458,999,6273,.50871039E-3,.21777E-3,0
STARLINK-33780,2025-069AC,2026-05-09T22:49:35.465952,15.42151583,.0001154,53.1595,216.5164,98.0121,262.1016,0,U,63459,999,6269,.65236E-3,.28072E-3,0
STARLINK-33679,2025-070A,2026-05-10T02:10:20.820000,15.27581167,.0001672,42.9985,273.3546,285.7983,74.2684,0,U,63460,999,6236,.66855E-3,.18181E-3,0
STARLINK-33706,2025-070B,2026-05-10T02:15:53.362368,15.27582758,.0001652,43.0012,273.3544,281.7103,78.3563,0,U,63461,999,6236,.45379E-3,.12247E-3,0
STARLINK-33691,2025-070C,2026-05-10T02:36:03.110112,15.27571126,.000143,43.0022,272.5955,267.5005,92.5683,0,U,63462,999,6232,.60787E-3,.16498E-3,0
STARLINK-33696,2025-070D,2026-05-09T20:56:24.349056,15.27590777,.0001828,43.0022,274.2705,270.5954,89.4689,0,U,63463,999,6233,.4082E-3,.10991E-3,0
STARLINK-33701,2025-070E,2026-05-10T02:21:28.343808,15.27489901,.0000742,43.0019,273.3802,206.5591,153.5222,0,U,63464,999,6236,.29496E-3,.7841E-4,0
STARLINK-33685,2025-070F,2026-05-10T01:55:30.652896,15.27556650,.0002144,43.0006,273.2440,268.6441,91.4165,0,U,63465,999,6236,.59878E-3,.1624E-3,0
STARLINK-33654,2025-070G,2026-05-09T20:58:15.812832,15.27578756,.0001567,43.0021,274.2773,286.8005,73.2675,0,U,63466,999,6233,.39281E-3,.10562E-3,0
STARLINK-33697,2025-070H,2026-05-09T16:19:29.278272,15.27602246,.00011464,43.0006,275.4178,270.8713,89.2008,0,U,63467,999,6230,.70952576E-3,.19327E-3,0
STARLINK-33720,2025-070J,2026-05-09T16:21:20.267712,15.27597746,.00013335,43.0015,275.4138,280.1811,79.8890,0,U,63468,999,6230,.30436496E-3,.8127E-4,0
STARLINK-33587,2025-070K,2026-05-10T02:58:13.848096,15.27584268,.0001776,43.0001,272.7080,269.9905,90.0743,0,U,63469,999,6237,.39895E-3,.10734E-3,0
STARLINK-33637,2025-070L,2026-05-10T02:26:59.426016,15.27575206,.0000512,42.9996,273.4059,267.2146,92.8647,0,U,63470,999,6236,.40851E-3,.10994E-3,0
